CUTE-1 (CO-55)          
1 27844U 03031E   26169.02064842  .00000221  00000+0  11471-3 0  9993
2 27844  98.6736 177.5689 0009609 175.5784 184.5482 14.24336174191794
CUBESAT XI-IV (CO-57)   
1 27848U 03031J   26168.93924090  .00000186  00000+0  10079-3 0  9999
2 27848  98.6765 177.2007 0009073 194.7196 165.3719 14.23621196191482
CUBESAT XI-V            
1 28895U 05043F   26168.94617719  .00001113  00000+0  18286-3 0  9994
2 28895  98.2987 324.5839 0013704 198.2082 161.8635 14.72633352101868
CUTE-1.7+APD II (CO-65) 
1 32785U 08021C   26169.70716628  .00004368  00000+0  27673-3 0  9995
2 32785  97.8275 151.1573 0009595  34.0332 326.1510 15.09462529985420
CANX-2                  
1 32790U 08021H   26168.88637359  .00003690  00000+0  25995-3 0  9994
2 32790  97.8640 148.6774 0011418  48.7586 311.4622 15.05623552984911
SEEDS II (CO-66)        
1 32791U 08021J   26169.44123302  .00014056  00000+0  44622-3 0  9992
2 32791  97.7517 167.3987 0000890 357.5135   2.6101 15.32786684987483
SWISSCUBE               
1 35932U 09051B   26169.26333948  .00000756  00000+0  15894-3 0  9996
2 35932  98.4034  77.1704 0006031 199.2833 160.8141 14.62483386889318
BEESAT-1                
1 35933U 09051C   26169.68405162  .00000636  00000+0  13739-3 0  9994
2 35933  98.3962  77.2309 0004309 211.2918 148.8026 14.61722602889409
ITUPSAT1                
1 35935U 09051E   26169.19666220  .00000591  00000+0  13197-3 0  9994
2 35935  98.4047  75.9267 0006285 230.1057 129.9590 14.60442029888881
TISAT 1                 
1 36799U 10035E   26169.29299463  .00015546  00000+0  50955-3 0  9998
2 36799  98.0713 115.9399 0001545 166.4985 193.6296 15.31742601867877
AEROCUBE 4.5A           
1 38767U 12048K   26168.97635548  .00442913  87798-4  10009-2 0  9994
2 38767  64.6231  23.9913 0019643 225.6747 134.2807 15.96962877372780
STRAND-1                
1 39090U 13009E   26169.72693088  .00000194  00000+0  79602-4 0  9992
2 39090  98.3923 349.9234 0007804 220.1282 139.9329 14.37163972697288
BRITE-AUSTRIA           
1 39091U 13009F   26169.32256041  .00000128  00000+0  58246-4 0  9991
2 39091  98.3995 348.7300 0009190 232.6910 127.3439 14.36542508697216
NEE-01 PEGASO           
1 39151U 13018B   26169.33746021  .00002315  00000+0  22456-3 0  9994
2 39151  98.1225 313.5252 0013220 155.6183 204.5663 14.93664438710873
POPACS 2                
1 39269U 13055E   26169.65274734  .00012134  00000+0  20498-3 0  9991
2 39269  80.9906 142.5145 0416784 189.0649 170.2883 14.91243644663431
POPACS 3                
1 39270U 13055F   26169.42500432  .00007680  00000+0  18030-3 0  9994
2 39270  81.0003 227.8457 0552049  66.2304 299.5770 14.56141061638731
ZACUBE-1 (TSHEPISOSAT)  
1 39417U 13066B   26169.34046199  .00002374  00000+0  18681-3 0  9992
2 39417  97.8077 131.6833 0040949 243.7163 115.9851 15.01194004680909
WNISAT-1                
1 39423U 13066H   26169.65224834  .00000730  00000+0  14172-3 0  9992
2 39423  97.7204 318.7045 0162048 226.9440 131.8099 14.58064468666946
TRITON-1                
1 39427U 13066M   26169.71378370  .00001711  00000+0  20987-3 0  9999
2 39427  97.8249  79.4866 0088541 228.8682 130.4866 14.81710808674315
GOMX-1                  
1 39430U 13066Q   26169.75210809  .00001731  00000+0  26398-3 0  9993
2 39430  97.6474  10.1158 0130156  72.5498 288.9888 14.69466170670148
CUBEBUG-2 (LO-74)       
1 39440U 13066AA  26169.60385934  .00004033  00000+0  37369-3 0  9998
2 39440  97.8910 118.5878 0058306  24.5043 335.8927 14.93772226677206
NEE-02 KRYSAOR          
1 39441U 13066AB  26169.55535490  .00001775  00000+0  19825-3 0  9994
2 39441  97.8893 108.7601 0067604  65.8333 294.9931 14.86622868676402
FUNCUBE-1 (AO-73)       
1 39444U 13066AE  26169.64748372  .00004840  00000+0  30180-3 0  9995
2 39444  97.8281 141.1237 0035755 195.6832 164.3291 15.09504260679885
UWE-3                   
1 39446U 13066AG  26169.61929382  .00003597  00000+0  31072-3 0  9995
2 39446  97.8699 125.7026 0047372 316.3669  43.3811 14.97034048677792
BRITE-CA1 (TORONTO)     
1 40020U 14033L   26169.60050782  .00000571  00000+0  93677-4 0  9997
2 40020  97.9742 298.5023 0077213 272.4058  86.8311 14.72678402642429
DUCHIFAT-1              
1 40021U 14033M   26169.68438844  .00088318  00000+0  89916-3 0  9990
2 40021  98.0447 229.0553 0002814 113.8680 246.2872 15.64848252655988
NANOSATC-BR1            
1 40024U 14033Q   26169.05482056  .00013269  00000+0  43894-3 0  9996
2 40024  98.0715 201.5196 0004490 160.3673 199.7740 15.31480608654119
QB50P1                  
1 40025U 14033R   26169.60000341  .00006188  00000+0  30544-3 0  9991
2 40025  98.0962 180.8450 0007983 209.9659 150.1117 15.18277268653243
QB50P2                  
1 40032U 14033Y   26169.42091574  .00005598  00000+0  30212-3 0  9993
2 40032  98.0750 166.3777 0008131 159.5672 200.5885 15.15170873652857
PERSEUS-M2              
1 40037U 14033AD  26169.73583380  .00001168  00000+0  11092-3 0  9997
2 40037  97.9966 120.3080 0010520 298.4371  61.5788 14.95512057651015
